XRISM                   
1 57800U 23137A   23354.62851534  .00006376  00000+0  50755-3 0  9993
2 57800  31.0043  73.5100 0010119 229.0488 130.9272 14.98960516 15700
